{
  "type": "FeatureCollection",
  "features": [
    {
      "type": "Feature",
      "properties": {
        "norad_id": 34907,
        "name": "COSMOS 2251 DEB",
        "group": "cosmos-2251-debris",
        "lat": -41.16801966645284,
        "lon": -124.04284480067173,
        "alt_km": 439.45440825425794,
        "timestamp": "2025-12-15T22:44:29.325717+00:00",
        "meta_object_name": "COSMOS 2251 DEB",
        "meta_object_id": "1993-036ADC",
        "meta_epoch": "2025-12-15T03:08:27.494592",
        "meta_mean_motion": 15.45801338,
        "meta_eccentricity": 0.00202571,
        "meta_inclination": 73.97,
        "meta_ra_of_asc_node": 43.1829,
        "meta_arg_of_pericenter": 337.9656,
        "meta_mean_anomaly": 22.0681,
        "meta_ephemeris_type": 0,
        "meta_classification_type": "U",
        "meta_norad_cat_id": 34907,
        "meta_element_set_no": 999,
        "meta_rev_at_epoch": 88010,
        "meta_bstar": 0.0046562373,
        "meta_mean_motion_dot": 0.00234249,
        "meta_mean_motion_ddot": 0,
        "tle_line1": "1 34907U 93036ADC 25349.13087378  .00234249  00000+0  46562-2 0  9992",
        "tle_line2": "2 34907  73.9700  43.1829 0020257 337.9656  22.0681 15.45801338880107"
      },
      "geometry": {
        "type": "Point",
        "coordinates": [
          -124.04284480067173,
          -41.16801966645284
        ]
      }
    },
    {
      "type": "Feature",
      "properties": {
        "norad_id": 34908,
        "name": "COSMOS 2251 DEB",
        "group": "cosmos-2251-debris",
        "lat": 65.91168475255238,
        "lon": 158.02393862325494,
        "alt_km": 752.9514092367372,
        "timestamp": "2025-12-15T22:44:29.325728+00:00",
        "meta_object_name": "COSMOS 2251 DEB",
        "meta_object_id": "1993-036ADD",
        "meta_epoch": "2025-12-15T08:58:46.793280",
        "meta_mean_motion": 14.37406702,
        "meta_eccentricity": 0.00401573,
        "meta_inclination": 74.0593,
        "meta_ra_of_asc_node": 18.8158,
        "meta_arg_of_pericenter": 34.059,
        "meta_mean_anomaly": 347.7513,
        "meta_ephemeris_type": 0,
        "meta_classification_type": "U",
        "meta_norad_cat_id": 34908,
        "meta_element_set_no": 999,
        "meta_rev_at_epoch": 87317,
        "meta_bstar": 0.00043548863,
        "meta_mean_motion_dot": 1.288e-05,
        "meta_mean_motion_ddot": 0,
        "tle_line1": "1 34908U 93036ADD 25349.37415270  .00001288  00000+0  43549-3 0  9993",
        "tle_line2": "2 34908  74.0593  18.8158 0040157  34.0590 347.7513 14.37406702873173"
      },
      "geometry": {
        "type": "Point",
        "coordinates": [
          158.02393862325494,
          65.91168475255238
        ]
      }
    },
    {
      "type": "Feature",
      "properties": {
        "norad_id": 34909,
        "name": "COSMOS 2251 DEB",
        "group": "cosmos-2251-debris",
        "lat": -10.947519025140917,
        "lon": 67.08714048523133,
        "alt_km": 687.3857662328273,
        "timestamp": "2025-12-15T22:44:29.325738+00:00",
        "meta_object_name": "COSMOS 2251 DEB",
        "meta_object_id": "1993-036ADE",
        "meta_epoch": "2025-12-14T15:55:30.641376",
        "meta_mean_motion": 14.77856453,
        "meta_eccentricity": 0.00843726,
        "meta_inclination": 74.0146,
        "meta_ra_of_asc_node": 72.7889,
        "meta_arg_of_pericenter": 208.1452,
        "meta_mean_anomaly": 151.5151,
        "meta_ephemeris_type": 0,
        "meta_classification_type": "U",
        "meta_norad_cat_id": 34909,
        "meta_element_set_no": 999,
        "meta_rev_at_epoch": 66880,
        "meta_bstar": 0.00052421635,
        "meta_mean_motion_dot": 3.965e-05,
        "meta_mean_motion_ddot": 0,
        "tle_line1": "1 34909U 93036ADE 25348.66354909  .00003965  00000+0  52422-3 0  9990",
        "tle_line2": "2 34909  74.0146  72.7889 0084372 208.1452 151.5151 14.77856453668803"
      },
      "geometry": {
        "type": "Point",
        "coordinates": [
          67.08714048523133,
          -10.947519025140917
        ]
      }
    },
    {
      "type": "Feature",
      "properties": {
        "norad_id": 34910,
        "name": "COSMOS 2251 DEB",
        "group": "cosmos-2251-debris",
        "lat": 53.81069921775192,
        "lon": -106.92632979319264,
        "alt_km": 1107.958958211685,
        "timestamp": "2025-12-15T22:44:29.325748+00:00",
        "meta_object_name": "COSMOS 2251 DEB",
        "meta_object_id": "1993-036ADF",
        "meta_epoch": "2025-12-14T02:07:32.801376",
        "meta_mean_motion": 13.37686817,
        "meta_eccentricity": 0.0468001,
        "meta_inclination": 73.8761,
        "meta_ra_of_asc_node": 99.2955,
        "meta_arg_of_pericenter": 217.9911,
        "meta_mean_anomaly": 321.1168,
        "meta_ephemeris_type": 0,
        "meta_classification_type": "U",
        "meta_norad_cat_id": 34910,
        "meta_element_set_no": 999,
        "meta_rev_at_epoch": 81542,
        "meta_bstar": 0.0016260876,
        "meta_mean_motion_dot": 1.586e-05,
        "meta_mean_motion_ddot": 0,
        "tle_line1": "1 34910U 93036ADF 25348.08857409  .00001586  00000+0  16261-2 0  9998",
        "tle_line2": "2 34910  73.8761  99.2955 0468001 217.9911 321.1168 13.37686817815421"
      },
      "geometry": {
        "type": "Point",
        "coordinates": [
          -106.92632979319264,
          53.81069921775192
        ]
      }
    },
    {
      "type": "Feature",
      "properties": {
        "norad_id": 34911,
        "name": "COSMOS 2251 DEB",
        "group": "cosmos-2251-debris",
        "lat": -47.57144973653864,
        "lon": 76.8762634124302,
        "alt_km": 741.8913865335853,
        "timestamp": "2025-12-15T22:44:29.325759+00:00",
        "meta_object_name": "COSMOS 2251 DEB",
        "meta_object_id": "1993-036ADG",
        "meta_epoch": "2025-12-14T17:58:47.734176",
        "meta_mean_motion": 14.59375822,
        "meta_eccentricity": 0.00837067,
        "meta_inclination": 74.0408,
        "meta_ra_of_asc_node": 240.9147,
        "meta_arg_of_pericenter": 5.8148,
        "meta_mean_anomaly": 51.4559,
        "meta_ephemeris_type": 0,
        "meta_classification_type": "U",
        "meta_norad_cat_id": 34911,
        "meta_element_set_no": 999,
        "meta_rev_at_epoch": 88616,
        "meta_bstar": 0.0001862909,
        "meta_mean_motion_dot": 8.94e-06,
        "meta_mean_motion_ddot": 0,
        "tle_line1": "1 34911U 93036ADG 25348.74916359  .00000894  00000+0  18629-3 0  9994",
        "tle_line2": "2 34911  74.0408 240.9147 0083706   5.8148  51.4559 14.59375822886164"
      },
      "geometry": {
        "type": "Point",
        "coordinates": [
          76.8762634124302,
          -47.57144973653864
        ]
      }
    },
    {
      "type": "Feature",
      "properties": {
        "norad_id": 34913,
        "name": "COSMOS 2251 DEB",
        "group": "cosmos-2251-debris",
        "lat": -49.18255446037769,
        "lon": -102.74449842853011,
        "alt_km": 779.6274991820483,
        "timestamp": "2025-12-15T22:44:29.325769+00:00",
        "meta_object_name": "COSMOS 2251 DEB",
        "meta_object_id": "1993-036ADJ",
        "meta_epoch": "2025-12-13T12:56:38.472288",
        "meta_mean_motion": 14.34637945,
        "meta_eccentricity": 0.00203757,
        "meta_inclination": 74.0284,
        "meta_ra_of_asc_node": 281.0321,
        "meta_arg_of_pericenter": 30.7723,
        "meta_mean_anomaly": 84.8293,
        "meta_ephemeris_type": 0,
        "meta_classification_type": "U",
        "meta_norad_cat_id": 34913,
        "meta_element_set_no": 999,
        "meta_rev_at_epoch": 65199,
        "meta_bstar": 8.4132523e-05,
        "meta_mean_motion_dot": 2.12e-06,
        "meta_mean_motion_ddot": 0,
        "tle_line1": "1 34913U 93036ADJ 25347.53933417  .00000212  00000+0  84133-4 0  9994",
        "tle_line2": "2 34913  74.0284 281.0321 0020375  30.7723  84.8293 14.34637945651993"
      },
      "geometry": {
        "type": "Point",
        "coordinates": [
          -102.74449842853011,
          -49.18255446037769
        ]
      }
    },
    {
      "type": "Feature",
      "properties": {
        "norad_id": 34918,
        "name": "COSMOS 2251 DEB",
        "group": "cosmos-2251-debris",
        "lat": 39.90107595359274,
        "lon": -38.677228407913354,
        "alt_km": 699.935374195522,
        "timestamp": "2025-12-15T22:44:29.325779+00:00",
        "meta_object_name": "COSMOS 2251 DEB",
        "meta_object_id": "1993-036ADP",
        "meta_epoch": "2025-12-15T06:25:32.155392",
        "meta_mean_motion": 14.61253226,
        "meta_eccentricity": 0.00334933,
        "meta_inclination": 74.0705,
        "meta_ra_of_asc_node": 308.803,
        "meta_arg_of_pericenter": 276.1787,
        "meta_mean_anomaly": 150.6606,
        "meta_ephemeris_type": 0,
        "meta_classification_type": "U",
        "meta_norad_cat_id": 34918,
        "meta_element_set_no": 999,
        "meta_rev_at_epoch": 65373,
        "meta_bstar": 0.0013394114,
        "meta_mean_motion_dot": 6.635e-05,
        "meta_mean_motion_ddot": 0,
        "tle_line1": "1 34918U 93036ADP 25349.26773328  .00006635  00000+0  13394-2 0  9998",
        "tle_line2": "2 34918  74.0705 308.8030 0033493 276.1787 150.6606 14.61253226653732"
      },
      "geometry": {
        "type": "Point",
        "coordinates": [
          -38.677228407913354,
          39.90107595359274
        ]
      }
    }
  ]
}